{"type": "FeatureCollection", "features": [{"type": "Feature", "properties": {"norad_id": 2807, "name": "OPS 7218 (TRANSIT 16)", "group": "nnss", "lat": -22.310636377271504, "lon": 173.68200821893677, "alt_km": 1084.56856108406, "timestamp": "2025-12-26T20:30:46.176408+00:00", "meta": {"OBJECT_NAME": "OPS 7218 (TRANSIT 16)", "OBJECT_ID": "1967-048A", "EPOCH": "2025-12-26T12:58:24.710592", "MEAN_MOTION": 13.50725086, "ECCENTRICITY": 0.00221293, "INCLINATION": 89.6735, "RA_OF_ASC_NODE": 353.5583, "ARG_OF_PERICENTER": 77.3586, "MEAN_ANOMALY": 38.0175, "EPHEMERIS_TYPE": 0, "CLASSIFICATION_TYPE": "U", "NORAD_CAT_ID": 2807, "ELEMENT_SET_NO": 999, "REV_AT_EPOCH": 88462, "BSTAR": 0.00015200412, "MEAN_MOTION_DOT": 1.08e-06, "MEAN_MOTION_DDOT": 0}, "tle": {"line1": "1 02807U 67048A   25360.54056378  .00000108  00000+0  15200-3 0  9995", "line2": "2 02807  89.6735 353.5583 0022129  77.3586  38.0175 13.50725086884620"}}, "geometry": {"type": "Point", "coordinates": [173.68200821893677, -22.310636377271504]}}, {"type": "Feature", "properties": {"norad_id": 2965, "name": "OPS 4947 (TRANSIT 17)", "group": "nnss", "lat": 44.75385976656075, "lon": 24.103963026221713, "alt_km": 1085.5169649808713, "timestamp": "2025-12-26T20:30:46.176427+00:00", "meta": {"OBJECT_NAME": "OPS 4947 (TRANSIT 17)", "OBJECT_ID": "1967-092A", "EPOCH": "2025-12-26T12:00:14.585184", "MEAN_MOTION": 13.53457189, "ECCENTRICITY": 0.00472456, "INCLINATION": 89.2485, "RA_OF_ASC_NODE": 23.3854, "ARG_OF_PERICENTER": 193.7634, "MEAN_ANOMALY": 284.9504, "EPHEMERIS_TYPE": 0, "CLASSIFICATION_TYPE": "U", "NORAD_CAT_ID": 2965, "ELEMENT_SET_NO": 999, "REV_AT_EPOCH": 87283, "BSTAR": 0.00018791726, "MEAN_MOTION_DOT": 1.39e-06, "MEAN_MOTION_DDOT": 0}, "tle": {"line1": "1 02965U 67092A   25360.50016881  .00000139  00000+0  18792-3 0  9993", "line2": "2 02965  89.2485  23.3854 0047245 193.7634 284.9504 13.53457189872836"}}, "geometry": {"type": "Point", "coordinates": [24.103963026221713, 44.75385976656075]}}, {"type": "Feature", "properties": {"norad_id": 3133, "name": "OPS 7034 (TRANSIT 18)", "group": "nnss", "lat": 81.95467724259456, "lon": 93.88097348426288, "alt_km": 1010.9122450277182, "timestamp": "2025-12-26T20:30:46.176439+00:00", "meta": {"OBJECT_NAME": "OPS 7034 (TRANSIT 18)", "OBJECT_ID": "1968-012A", "EPOCH": "2025-12-26T11:59:50.647200", "MEAN_MOTION": 13.51568974, "ECCENTRICITY": 0.00750778, "INCLINATION": 90.0285, "RA_OF_ASC_NODE": 273.6782, "ARG_OF_PERICENTER": 129.6479, "MEAN_ANOMALY": 43.4693, "EPHEMERIS_TYPE": 0, "CLASSIFICATION_TYPE": "U", "NORAD_CAT_ID": 3133, "ELEMENT_SET_NO": 999, "REV_AT_EPOCH": 57104, "BSTAR": 0.0002102239, "MEAN_MOTION_DOT": 1.49e-06, "MEAN_MOTION_DDOT": 0}, "tle": {"line1": "1 03133U 68012A   25360.49989175  .00000149  00000+0  21022-3 0  9998", "line2": "2 03133  90.0285 273.6782 0075077 129.6479  43.4693 13.51568974571040"}}, "geometry": {"type": "Point", "coordinates": [93.88097348426288, 81.95467724259456]}}, {"type": "Feature", "properties": {"norad_id": 4507, "name": "NNSS 19 (TRANSIT 19)", "group": "nnss", "lat": 57.621819073794384, "lon": -125.46394994285959, "alt_km": 1184.6018516826043, "timestamp": "2025-12-26T20:30:46.176449+00:00", "meta": {"OBJECT_NAME": "NNSS 19 (TRANSIT 19)", "OBJECT_ID": "1970-067A", "EPOCH": "2025-12-26T14:53:26.025504", "MEAN_MOTION": 13.51317911, "ECCENTRICITY": 0.01702285, "INCLINATION": 90.0046, "RA_OF_ASC_NODE": 234.5432, "ARG_OF_PERICENTER": 252.7431, "MEAN_ANOMALY": 105.5031, "EPHEMERIS_TYPE": 0, "CLASSIFICATION_TYPE": "U", "NORAD_CAT_ID": 4507, "ELEMENT_SET_NO": 999, "REV_AT_EPOCH": 72409, "BSTAR": 0.00012342107, "MEAN_MOTION_DOT": 9.5e-07, "MEAN_MOTION_DDOT": 0}, "tle": {"line1": "1 04507U 70067A   25360.62044011  .00000095  00000+0  12342-3 0  9998", "line2": "2 04507  90.0046 234.5432 0170228 252.7431 105.5031 13.51317911724093"}}, "geometry": {"type": "Point", "coordinates": [-125.46394994285959, 57.621819073794384]}}, {"type": "Feature", "properties": {"norad_id": 6909, "name": "NNSS 20 (TRANSIT 20)", "group": "nnss", "lat": 71.85326834152926, "lon": -104.71737955558567, "alt_km": 893.2249443292467, "timestamp": "2025-12-26T20:30:46.176459+00:00", "meta": {"OBJECT_NAME": "NNSS 20 (TRANSIT 20)", "OBJECT_ID": "1973-081A", "EPOCH": "2025-12-26T04:24:52.750368", "MEAN_MOTION": 13.7144138, "ECCENTRICITY": 0.01560589, "INCLINATION": 89.8559, "RA_OF_ASC_NODE": 254.8528, "ARG_OF_PERICENTER": 38.4618, "MEAN_ANOMALY": 322.7546, "EPHEMERIS_TYPE": 0, "CLASSIFICATION_TYPE": "U", "NORAD_CAT_ID": 6909, "ELEMENT_SET_NO": 999, "REV_AT_EPOCH": 80545, "BSTAR": 0.0002770545, "MEAN_MOTION_DOT": 2.83e-06, "MEAN_MOTION_DDOT": 0}, "tle": {"line1": "1 06909U 73081A   25360.18394387  .00000283  00000+0  27705-3 0  9998", "line2": "2 06909  89.8559 254.8528 0156058  38.4618 322.7546 13.71441380805452"}}, "geometry": {"type": "Point", "coordinates": [-104.71737955558567, 71.85326834152926]}}, {"type": "Feature", "properties": {"norad_id": 10457, "name": "TRANSAT", "group": "nnss", "lat": -58.07535089409762, "lon": 77.53056304283483, "alt_km": 1100.8947633602647, "timestamp": "2025-12-26T20:30:46.176469+00:00", "meta": {"OBJECT_NAME": "TRANSAT", "OBJECT_ID": "1977-106A", "EPOCH": "2025-12-26T11:57:15.611040", "MEAN_MOTION": 13.48945735, "ECCENTRICITY": 0.00266157, "INCLINATION": 89.6474, "RA_OF_ASC_NODE": 78.1095, "ARG_OF_PERICENTER": 150.6072, "MEAN_ANOMALY": 220.5279, "EPHEMERIS_TYPE": 0, "CLASSIFICATION_TYPE": "U", "NORAD_CAT_ID": 10457, "ELEMENT_SET_NO": 999, "REV_AT_EPOCH": 36929, "BSTAR": 0.00012243214, "MEAN_MOTION_DOT": 8.7e-07, "MEAN_MOTION_DDOT": 0}, "tle": {"line1": "1 10457U 77106A   25360.49809735  .00000087  00000+0  12243-3 0  9998", "line2": "2 10457  89.6474  78.1095 0026615 150.6072 220.5279 13.48945735369293"}}, "geometry": {"type": "Point", "coordinates": [77.53056304283483, -58.07535089409762]}}, {"type": "Feature", "properties": {"norad_id": 12458, "name": "NOVA 1", "group": "nnss", "lat": -19.293614059685627, "lon": 91.13396726829126, "alt_km": 1176.9133738731052, "timestamp": "2025-12-26T20:30:46.176479+00:00", "meta": {"OBJECT_NAME": "NOVA 1", "OBJECT_ID": "1981-044A", "EPOCH": "2025-12-26T06:21:41.464800", "MEAN_MOTION": 13.23279972, "ECCENTRICITY": 0.00156868, "INCLINATION": 89.8525, "RA_OF_ASC_NODE": 91.194, "ARG_OF_PERICENTER": 70.7289, "MEAN_ANOMALY": 342.9728, "EPHEMERIS_TYPE": 0, "CLASSIFICATION_TYPE": "U", "NORAD_CAT_ID": 12458, "ELEMENT_SET_NO": 999, "REV_AT_EPOCH": 15365, "BSTAR": 0.00011734721, "MEAN_MOTION_DOT": 5.9e-07, "MEAN_MOTION_DDOT": 0}, "tle": {"line1": "1 12458U 81044A   25360.26506325  .00000059  00000+0  11735-3 0  9995", "line2": "2 12458  89.8525  91.1940 0015686  70.7289 342.9728 13.23279972153652"}}, "geometry": {"type": "Point", "coordinates": [91.13396726829126, -19.293614059685627]}}, {"type": "Feature", "properties": {"norad_id": 15362, "name": "NOVA 3", "group": "nnss", "lat": -21.581945834650416, "lon": -99.34755794960216, "alt_km": 1178.2126183011023, "timestamp": "2025-12-26T20:30:46.176489+00:00", "meta": {"OBJECT_NAME": "NOVA 3", "OBJECT_ID": "1984-110A", "EPOCH": "2025-12-26T12:17:22.808256", "MEAN_MOTION": 13.23046399, "ECCENTRICITY": 0.0029843, "INCLINATION": 90.1217, "RA_OF_ASC_NODE": 80.6966, "ARG_OF_PERICENTER": 292.1662, "MEAN_ANOMALY": 78.6503, "EPHEMERIS_TYPE": 0, "CLASSIFICATION_TYPE": "U", "NORAD_CAT_ID": 15362, "ELEMENT_SET_NO": 999, "REV_AT_EPOCH": 98881, "BSTAR": 0.00016271828, "MEAN_MOTION_DOT": 7.7e-07, "MEAN_MOTION_DDOT": 0}, "tle": {"line1": "1 15362U 84110A   25360.51206954  .00000077  00000+0  16272-3 0  9993", "line2": "2 15362  90.1217  80.6966 0029843 292.1662  78.6503 13.23046399988811"}}, "geometry": {"type": "Point", "coordinates": [-99.34755794960216, -21.581945834650416]}}, {"type": "Feature", "properties": {"norad_id": 15935, "name": "OSCAR 30", "group": "nnss", "lat": -44.07741062780857, "lon": -80.08236698441593, "alt_km": 1257.2650271634657, "timestamp": "2025-12-26T20:30:46.176499+00:00", "meta": {"OBJECT_NAME": "OSCAR 30", "OBJECT_ID": "1985-066A", "EPOCH": "2025-12-26T12:16:16.519584", "MEAN_MOTION": 13.36080624, "ECCENTRICITY": 0.01687622, "INCLINATION": 90.1653, "RA_OF_ASC_NODE": 100.0722, "ARG_OF_PERICENTER": 45.4025, "MEAN_ANOMALY": 327.8317, "EPHEMERIS_TYPE": 0, "CLASSIFICATION_TYPE": "U", "NORAD_CAT_ID": 15935, "ELEMENT_SET_NO": 999, "REV_AT_EPOCH": 96637, "BSTAR": 0.00016463637, "MEAN_MOTION_DOT": 1.01e-06, "MEAN_MOTION_DDOT": 0}, "tle": {"line1": "1 15935U 85066A   25360.51130231  .00000101  00000+0  16464-3 0  9995", "line2": "2 15935  90.1653 100.0722 0168762  45.4025 327.8317 13.36080624966376"}}, "geometry": {"type": "Point", "coordinates": [-80.08236698441593, -44.07741062780857]}}, {"type": "Feature", "properties": {"norad_id": 15936, "name": "OSCAR 24", "group": "nnss", "lat": -69.65437294139453, "lon": 93.03828633299719, "alt_km": 1194.9243755639527, "timestamp": "2025-12-26T20:30:46.176509+00:00", "meta": {"OBJECT_NAME": "OSCAR 24", "OBJECT_ID": "1985-066B", "EPOCH": "2025-12-26T11:55:31.117152", "MEAN_MOTION": 13.35937803, "ECCENTRICITY": 0.01699445, "INCLINATION": 90.1791, "RA_OF_ASC_NODE": 92.5487, "ARG_OF_PERICENTER": 51.8962, "MEAN_ANOMALY": 320.3324, "EPHEMERIS_TYPE": 0, "CLASSIFICATION_TYPE": "U", "NORAD_CAT_ID": 15936, "ELEMENT_SET_NO": 999, "REV_AT_EPOCH": 96827, "BSTAR": 0.00014615642, "MEAN_MOTION_DOT": 9.1e-07, "MEAN_MOTION_DDOT": 0}, "tle": {"line1": "1 15936U 85066B   25360.49688793  .00000091  00000+0  14616-3 0  9999", "line2": "2 15936  90.1791  92.5487 0169944  51.8962 320.3324 13.35937803968273"}}, "geometry": {"type": "Point", "coordinates": [93.03828633299719, -69.65437294139453]}}]}